{"type": "FeatureCollection", "features": [{"type": "Feature", "properties": {"norad_id": 66549, "name": "SHIJIAN-28 (SJ-28)", "group": "last-30-days", "lat": -4.971371874179235, "lon": -170.6160081265855, "alt_km": 35792.4219289655, "timestamp": "2025-12-26T22:28:04.495366+00:00", "meta": {"OBJECT_NAME": "SHIJIAN-28 (SJ-28)", "OBJECT_ID": "2025-277A", "EPOCH": "2025-12-25T13:29:07.948320", "MEAN_MOTION": 1.0026485, "ECCENTRICITY": 9.97e-05, "INCLINATION": 4.9871, "RA_OF_ASC_NODE": 274.7549, "ARG_OF_PERICENTER": 127.1328, "MEAN_ANOMALY": 11.4336, "EPHEMERIS_TYPE": 0, "CLASSIFICATION_TYPE": "U", "NORAD_CAT_ID": 66549, "ELEMENT_SET_NO": 999, "REV_AT_EPOCH": 41, "BSTAR": 0, "MEAN_MOTION_DOT": -3.37e-06, "MEAN_MOTION_DDOT": 0}, "tle": {"line1": "1 66549U 25277A   25359.56189755 -.00000337  00000+0  00000+0 0  9995", "line2": "2 66549   4.9871 274.7549 0000997 127.1328  11.4336  1.00264850   417"}}, "geometry": {"type": "Point", "coordinates": [-170.6160081265855, -4.971371874179235]}}, {"type": "Feature", "properties": {"norad_id": 66550, "name": "CZ-7A R/B", "group": "last-30-days", "lat": 14.212472633057404, "lon": -1.0499902899941214, "alt_km": 6234.438838248255, "timestamp": "2025-12-26T22:28:04.495417+00:00", "meta": {"OBJECT_NAME": "CZ-7A R/B", "OBJECT_ID": "2025-277B", "EPOCH": "2025-12-23T05:53:12.433056", "MEAN_MOTION": 3.27661077, "ECCENTRICITY": 0.66094342, "INCLINATION": 14.3426, "RA_OF_ASC_NODE": 263.9223, "ARG_OF_PERICENTER": 200.4471, "MEAN_ANOMALY": 110.5172, "EPHEMERIS_TYPE": 0, "CLASSIFICATION_TYPE": "U", "NORAD_CAT_ID": 66550, "ELEMENT_SET_NO": 999, "REV_AT_EPOCH": 65, "BSTAR": 0.0068493476, "MEAN_MOTION_DOT": 0.10979967, "MEAN_MOTION_DDOT": 1.8894821e-05}, "tle": {"line1": "1 66550U 25277B   25357.24528279  .10979967  18895-4  68493-2 0  9991", "line2": "2 66550  14.3426 263.9223 6609434 200.4471 110.5172  3.27661077   658"}}, "geometry": {"type": "Point", "coordinates": [-1.0499902899941214, 14.212472633057404]}}, {"type": "Feature", "properties": {"norad_id": 66554, "name": "GLOBAL-33", "group": "last-30-days", "lat": -27.608601821611742, "lon": -60.47736261841006, "alt_km": 474.8466306369028, "timestamp": "2025-12-26T22:28:04.495446+00:00", "meta": {"OBJECT_NAME": "GLOBAL-33", "OBJECT_ID": "2025-267A", "EPOCH": "2025-12-26T07:00:36.918144", "MEAN_MOTION": 15.31789204, "ECCENTRICITY": 0.00049594, "INCLINATION": 42.0213, "RA_OF_ASC_NODE": 338.7502, "ARG_OF_PERICENTER": 185.8962, "MEAN_ANOMALY": 174.1818, "EPHEMERIS_TYPE": 0, "CLASSIFICATION_TYPE": "U", "NORAD_CAT_ID": 66554, "ELEMENT_SET_NO": 999, "REV_AT_EPOCH": 548, "BSTAR": 0.00047882598, "MEAN_MOTION_DOT": 0.00014797, "MEAN_MOTION_DDOT": 0}, "tle": {"line1": "1 66554U 25267A   25360.29209396  .00014797  00000+0  47883-3 0  9994", "line2": "2 66554  42.0213 338.7502 0004959 185.8962 174.1818 15.31789204  5481"}}, "geometry": {"type": "Point", "coordinates": [-60.47736261841006, -27.608601821611742]}}, {"type": "Feature", "properties": {"norad_id": 66557, "name": "STARLINK-35699", "group": "last-30-days", "lat": 17.890351724472175, "lon": -161.87811407626148, "alt_km": 466.6381304611514, "timestamp": "2025-12-26T22:28:04.495459+00:00", "meta": {"OBJECT_NAME": "STARLINK-35699", "OBJECT_ID": "2025-268A", "EPOCH": "2025-12-26T18:00:02.998944", "MEAN_MOTION": 15.33238243, "ECCENTRICITY": 0.0001196, "INCLINATION": 43.0006, "RA_OF_ASC_NODE": 39.4494, "ARG_OF_PERICENTER": 291.3829, "MEAN_ANOMALY": 273.472, "EPHEMERIS_TYPE": 0, "CLASSIFICATION_TYPE": "U", "NORAD_CAT_ID": 66557, "ELEMENT_SET_NO": 999, "REV_AT_EPOCH": 598, "BSTAR": -0.068983, "MEAN_MOTION_DOT": -0.02043447, "MEAN_MOTION_DDOT": 0}, "tle": {"line1": "1 66557U 25268A   25360.75003471 -.02043447  00000+0 -68983-1 0  9995", "line2": "2 66557  43.0006  39.4494 0001196 291.3829 273.4720 15.33238243  5989"}}, "geometry": {"type": "Point", "coordinates": [-161.87811407626148, 17.890351724472175]}}, {"type": "Feature", "properties": {"norad_id": 66558, "name": "STARLINK-35695", "group": "last-30-days", "lat": 6.157329169618987, "lon": -148.3017720056019, "alt_km": 465.59825353033193, "timestamp": "2025-12-26T22:28:04.495471+00:00", "meta": {"OBJECT_NAME": "STARLINK-35695", "OBJECT_ID": "2025-268B", "EPOCH": "2025-12-26T18:00:02.998944", "MEAN_MOTION": 15.34085752, "ECCENTRICITY": 0.0001151, "INCLINATION": 43.0008, "RA_OF_ASC_NODE": 39.4075, "ARG_OF_PERICENTER": 285.7788, "MEAN_ANOMALY": 296.2343, "EPHEMERIS_TYPE": 0, "CLASSIFICATION_TYPE": "U", "NORAD_CAT_ID": 66558, "ELEMENT_SET_NO": 999, "REV_AT_EPOCH": 598, "BSTAR": -0.067992, "MEAN_MOTION_DOT": -0.02066841, "MEAN_MOTION_DDOT": 0}, "tle": {"line1": "1 66558U 25268B   25360.75003471 -.02066841  00000+0 -67992-1 0  9998", "line2": "2 66558  43.0008  39.4075 0001151 285.7788 296.2343 15.34085752  5989"}}, "geometry": {"type": "Point", "coordinates": [-148.3017720056019, 6.157329169618987]}}, {"type": "Feature", "properties": {"norad_id": 66559, "name": "STARLINK-35419", "group": "last-30-days", "lat": -41.71653303397453, "lon": -68.79192050092911, "alt_km": 453.4937146164093, "timestamp": "2025-12-26T22:28:04.495483+00:00", "meta": {"OBJECT_NAME": "STARLINK-35419", "OBJECT_ID": "2025-268C", "EPOCH": "2025-12-26T18:00:02.998944", "MEAN_MOTION": 15.39212444, "ECCENTRICITY": 0.0001113, "INCLINATION": 43.0001, "RA_OF_ASC_NODE": 39.2052, "ARG_OF_PERICENTER": 263.0636, "MEAN_ANOMALY": 42.0539, "EPHEMERIS_TYPE": 0, "CLASSIFICATION_TYPE": "U", "NORAD_CAT_ID": 66559, "ELEMENT_SET_NO": 999, "REV_AT_EPOCH": 603, "BSTAR": -0.057141, "MEAN_MOTION_DOT": -0.0202011, "MEAN_MOTION_DDOT": 0}, "tle": {"line1": "1 66559U 25268C   25360.75003471 -.02020110  00000+0 -57141-1 0  9993", "line2": "2 66559  43.0001  39.2052 0001113 263.0636  42.0539 15.39212444  6031"}}, "geometry": {"type": "Point", "coordinates": [-68.79192050092911, -41.71653303397453]}}, {"type": "Feature", "properties": {"norad_id": 66560, "name": "STARLINK-35411", "group": "last-30-days", "lat": -42.90249384132322, "lon": -56.12328932012596, "alt_km": 451.9723509447058, "timestamp": "2025-12-26T22:28:04.495495+00:00", "meta": {"OBJECT_NAME": "STARLINK-35411", "OBJECT_ID": "2025-268D", "EPOCH": "2025-12-26T18:00:02.998944", "MEAN_MOTION": 15.39749224, "ECCENTRICITY": 0.0001109, "INCLINATION": 43.0009, "RA_OF_ASC_NODE": 39.1834, "ARG_OF_PERICENTER": 259.2571, "MEAN_ANOMALY": 54.9644, "EPHEMERIS_TYPE": 0, "CLASSIFICATION_TYPE": "U", "NORAD_CAT_ID": 66560, "ELEMENT_SET_NO": 999, "REV_AT_EPOCH": 603, "BSTAR": -0.056576, "MEAN_MOTION_DOT": -0.02034349, "MEAN_MOTION_DDOT": 0}, "tle": {"line1": "1 66560U 25268D   25360.75003471 -.02034349  00000+0 -56576-1 0  9995", "line2": "2 66560  43.0009  39.1834 0001109 259.2571  54.9644 15.39749224  6038"}}, "geometry": {"type": "Point", "coordinates": [-56.12328932012596, -42.90249384132322]}}, {"type": "Feature", "properties": {"norad_id": 66561, "name": "STARLINK-35305", "group": "last-30-days", "lat": -38.85529021965919, "lon": -21.78010813518562, "alt_km": 446.74173868390517, "timestamp": "2025-12-26T22:28:04.495512+00:00", "meta": {"OBJECT_NAME": "STARLINK-35305", "OBJECT_ID": "2025-268E", "EPOCH": "2025-12-26T18:00:02.998944", "MEAN_MOTION": 15.41439788, "ECCENTRICITY": 0.0001413, "INCLINATION": 43.0002, "RA_OF_ASC_NODE": 39.121, "ARG_OF_PERICENTER": 266.2599, "MEAN_ANOMALY": 73.0093, "EPHEMERIS_TYPE": 0, "CLASSIFICATION_TYPE": "U", "NORAD_CAT_ID": 66561, "ELEMENT_SET_NO": 999, "REV_AT_EPOCH": 592, "BSTAR": -0.054645, "MEAN_MOTION_DOT": -0.02074436, "MEAN_MOTION_DDOT": 0}, "tle": {"line1": "1 66561U 25268E   25360.75003471 -.02074436  00000+0 -54645-1 0  9992", "line2": "2 66561  43.0002  39.1210 0001413 266.2599  73.0093 15.41439788  5927"}}, "geometry": {"type": "Point", "coordinates": [-21.78010813518562, -38.85529021965919]}}, {"type": "Feature", "properties": {"norad_id": 66562, "name": "STARLINK-35579", "group": "last-30-days", "lat": -42.134055274809725, "lon": -38.0356405076367, "alt_km": 449.27689499000917, "timestamp": "2025-12-26T22:28:04.495523+00:00", "meta": {"OBJECT_NAME": "STARLINK-35579", "OBJECT_ID": "2025-268F", "EPOCH": "2025-12-26T18:00:02.998944", "MEAN_MOTION": 15.40599482, "ECCENTRICITY": 0.0001442, "INCLINATION": 43.0009, "RA_OF_ASC_NODE": 39.1503, "ARG_OF_PERICENTER": 264.2306, "MEAN_ANOMALY": 62.7969, "EPHEMERIS_TYPE": 0, "CLASSIFICATION_TYPE": "U", "NORAD_CAT_ID": 66562, "ELEMENT_SET_NO": 999, "REV_AT_EPOCH": 598, "BSTAR": -0.056105, "MEAN_MOTION_DOT": -0.0207103, "MEAN_MOTION_DDOT": 0}, "tle": {"line1": "1 66562U 25268F   25360.75003471 -.02071030  00000+0 -56105-1 0  9993", "line2": "2 66562  43.0009  39.1503 0001442 264.2306  62.7969 15.40599482  5986"}}, "geometry": {"type": "Point", "coordinates": [-38.0356405076367, -42.134055274809725]}}, {"type": "Feature", "properties": {"norad_id": 66563, "name": "STARLINK-35437", "group": "last-30-days", "lat": -33.81828294077673, "lon": -7.945325097966032, "alt_km": 444.0915750586473, "timestamp": "2025-12-26T22:28:04.495534+00:00", "meta": {"OBJECT_NAME": "STARLINK-35437", "OBJECT_ID": "2025-268G", "EPOCH": "2025-12-26T18:00:02.998944", "MEAN_MOTION": 15.42274222, "ECCENTRICITY": 0.0001504, "INCLINATION": 43.0001, "RA_OF_ASC_NODE": 39.0924, "ARG_OF_PERICENTER": 265.5684, "MEAN_ANOMALY": 85.3865, "EPHEMERIS_TYPE": 0, "CLASSIFICATION_TYPE": "U", "NORAD_CAT_ID": 66563, "ELEMENT_SET_NO": 999, "REV_AT_EPOCH": 609, "BSTAR": -0.052983, "MEAN_MOTION_DOT": -0.02069549, "MEAN_MOTION_DDOT": 0}, "tle": {"line1": "1 66563U 25268G   25360.75003471 -.02069549  00000+0 -52983-1 0  9996", "line2": "2 66563  43.0001  39.0924 0001504 265.5684  85.3865 15.42274222  6090"}}, "geometry": {"type": "Point", "coordinates": [-7.945325097966032, -33.81828294077673]}}]}